QIANFAN-25              
1 61558U 24185G   25332.13220564  .00000495  00000+0  29449-3 0  9991
2 61558  88.9808  79.8391 0009661   8.3038 351.8302 14.05889025 67455
QIANFAN-26              
1 61559U 24185H   25331.93340705  .00000197  00000+0  18388-3 0  9998
2 61559  88.9809  81.3451 0007110  68.0729 292.1192 13.77799139 66636
QIANFAN-27              
1 61560U 24185J   25331.95612811  .00000784  00000+0  31468-3 0  9998
2 61560  88.9804  78.6733 0007054 353.5400   6.5702 14.27304458 68054
QIANFAN-28              
1 61561U 24185K   25331.94547518  .00001145  00000+0  45598-3 0  9990
2 61561  88.9822  78.6766 0006305 354.3025   5.8096 14.27987969 68064
QIANFAN-29              
1 61562U 24185L   25332.00054202  .00000214  00000+0  31259-3 0  9997
2 61562  88.9785  82.8301 0011790  95.7598 264.4898 13.51002973 65801
QIANFAN-30              
1 61563U 24185M   25331.96423632  .00000297  00000+0  44777-3 0  9999
2 61563  88.9806  82.3536 0009196  84.1448 276.0751 13.49982854 66073
QIANFAN-31              
1 61564U 24185N   25331.94569701  .00000255  00000+0  33656-3 0  9994
2 61564  88.9790  82.1810 0008585  80.4148 279.7977 13.57957599 66152
QIANFAN-32              
1 61565U 24185P   25331.94084106  .00000234  00000+0  34427-3 0  9990
2 61565  88.9849  82.4856 0011271 106.0857 254.1536 13.50727227 66041
